INTELSAT 23 (IS-23)     
1 38867U 12057A   26196.90303556 -.00000295  00000+0  00000+0 0  9997
2 38867   0.0177  28.0219 0000467 205.7521 332.0704  1.00268345 50249
FM-6                    
1 39360U 13058A   26194.96565503 -.00000021  00000+0  00000+0 0  9991
2 39360   0.0142  33.4803 0001390 144.8411 344.7900  1.00270909 46349
INTELSAT 30 (IS-30)     
1 40271U 14062A   26196.89471485 -.00000161  00000+0  00000+0 0  9994
2 40271   0.0195  54.0858 0001415 333.0622 133.6241  1.00269522  7083
DIRECTV 14              
1 40333U 14078B   26196.51016898 -.00000135  00000+0  00000+0 0  9993
2 40333   0.0110  40.7880 0000690 304.5925  32.3918  1.00267237 42322
DIRECTV 15              
1 40663U 15026A   26195.68123920 -.00000111  00000+0  00000+0 0  9999
2 40663   0.0176  71.4979 0000099 242.5429 120.8693  1.00271323 40730
SKY MEXICO-1            
1 40664U 15026B   26196.89792153 -.00000245  00000+0  00000+0 0  9992
2 40664   0.0159  45.6386 0002405  90.7365  41.8013  1.00269935 40747
INTELSAT 34 (IS-34)     
1 40874U 15039A   26196.83125598 -.00000296  00000+0  00000+0 0  9992
2 40874   0.0104  10.8625 0000403 353.5222 173.0412  1.00269460 39920
INTELSAT 31 (IS-31)     
1 41581U 16035A   26196.89462818 -.00000161  00000+0  00000+0 0  9991
2 41581   0.0150 294.7863 0001159   0.3168 225.6434  1.00270217 36971
INTELSAT 36 (IS-36)     
1 41747U 16053A   26196.92703441 -.00000034  00000+0  00000+0 0  9998
2 41747   0.0121  36.5367 0002360 303.0721 356.3616  1.00270528 36246
INTELSAT 32E (IS-32E)   
1 41945U 17007B   26196.69096175  .00000000  00000+0  00000+0 0  9993
2 41945   0.0237  56.8760 0000270 287.4334 154.7925  1.00266215 34518
INTELSAT 35E (IS-35E)   
1 42818U 17041A   26196.55183711  .00000000  00000+0  00000+0 0  9999
2 42818   0.0261  63.1048 0001683  46.6502 347.7991  1.00266637 33105
INTELSAT 37E (IS-37E)   
1 42950U 17059A   26196.83864727 -.00000152  00000+0  00000+0 0  9998
2 42950   0.0169  50.3308 0002611  73.3296  93.9082  1.00269761 32353
AZERSPACE 2 (IS-38)     
1 43632U 18074A   26196.85118248  .00000000  00000+0  00000+0 0  9997
2 43632   0.0246  58.5053 0001617  67.4827 159.2539  1.00273206 28732
HORIZONS-3E             
1 43633U 18074B   26194.64002854 -.00000035  00000+0  00000+0 0  9997
2 43633   0.0498 224.9289 0000940  53.6947  52.2963  1.00270118 28608
AT&T T-16               
1 44333U 19034A   26195.82414432 -.00000123  00000+0  00000+0 0  9990
2 44333   0.0157  70.7114 0000616 248.2150 169.5701  1.00268430 25917
INTELSAT 39 (IS-39)     
1 44476U 19049B   26196.92573441  .00000000  00000+0  00000+0 0  9995
2 44476   0.0243  57.5655 0000930 281.1474 350.2709  1.00269318 25416
GALAXY 30 (G-30)        
1 46114U 20056C   26196.67484167  .00000027  00000+0  00000+0 0  9993
2 46114   0.0143  60.1021 0001998  55.6729 295.6777  1.00271950 21570
GALAXY 33 (G-33)        
1 54026U 22128A   26196.74456094  .00000069  00000+0  00000+0 0  9998
2 54026   0.0109  51.6708 0001804  68.9157 308.0435  1.00272482 14021
GALAXY 34 (G-34)        
1 54027U 22128B   26196.67406167  .00000048  00000+0  00000+0 0  9994
2 54027   0.0124  38.4274 0001512  92.6811 276.0718  1.00276610 14190
GALAXY 31 (G-31)        
1 54243U 22153A   26196.88942816  .00000003  00000+0  00000+0 0  9992
2 54243   0.0132  88.5751 0001000  30.9418  13.3854  1.00271370  7424
GALAXY 32 (G-32)        
1 54244U 22153B   26196.82388928 -.00000184  00000+0  00000+0 0  9996
2 54244   0.0077  41.0430 0001317 359.1234  99.0870  1.00271405 13430
GALAXY 35 (G-35)        
1 54741U 22170A   26196.89506152 -.00000173  00000+0  00000+0 0  9993
2 54741   0.0160  70.1971 0001783  46.4378  46.2025  1.00272330 13186
GALAXY 36 (G-36)        
1 54742U 22170B   26196.61074071 -.00000195  00000+0  00000+0 0  9998
2 54742   0.0054 142.8857 0002396 316.1422 325.2844  1.00270281 13055
GALAXY 37 (G-37)        
1 57493U 23112A   26194.96357502  .00000042  00000+0  00000+0 0  9990
2 57493   0.0218  73.5270 0001739  44.1230  34.0616  1.00271325 10810
